MALLIGYONG-1            
1 58400U 23179A   24238.49589470  .00009481  00000+0  41468-3 0  9991
2 58400  97.3922 124.1758 0001015  41.9656 318.1658 15.22277526 42262
